{
    "links": {
        "self": "http://www.neowsapp.com/rest/v1/neo/3805269?api_key=iIulBulltgU6a56xZRHN4H3l9WmuAYTsLGpBGhQ2"
    },
    "id": "3805269",
    "neo_reference_id": "3805269",
    "name": "(2018 HT)",
    "designation": "2018 HT",
    "nasa_jpl_url": "http://ssd.jpl.nasa.gov/sbdb.cgi?sstr=3805269",
    "absolute_magnitude_h": 26.9,
    "estimated_diameter": {
        "kilometers": {
            "estimated_diameter_min": 0.0110803882,
            "estimated_diameter_max": 0.0247765013
        },
        "meters": {
            "estimated_diameter_min": 11.0803882126,
            "estimated_diameter_max": 24.7765012606
        },
        "miles": {
            "estimated_diameter_min": 0.0068850319,
            "estimated_diameter_max": 0.0153953994
        },
        "feet": {
            "estimated_diameter_min": 36.3529808636,
            "estimated_diameter_max": 81.2877363957
        }
    },
    "is_potentially_hazardous_asteroid": false,
    "close_approach_data": [
        {
            "close_approach_date": "2018-04-21",
            "close_approach_date_full": "2018-Apr-21 06:39",
            "epoch_date_close_approach": 1524292740000,
            "relative_velocity": {
                "kilometers_per_second": "7.5749441445",
                "kilometers_per_hour": "27269.798920257",
                "miles_per_hour": "16944.3925568675"
            },
            "miss_distance": {
                "astronomical": "0.0182311308",
                "lunar": "7.0919098812",
                "kilometers": "2727338.335371396",
                "miles": "1694689.4578054248"
            },
            "orbiting_body": "Earth"
        }
    ],
    "orbital_data": {
        "orbit_id": "1",
        "orbit_determination_date": "2018-04-21 13:12:02",
        "first_observation_date": "2018-04-19",
        "last_observation_date": "2018-04-21",
        "data_arc_in_days": 2,
        "observations_used": 30,
        "orbit_uncertainty": "8",
        "minimum_orbit_intersection": ".010864",
        "jupiter_tisserand_invariant": "3.755",
        "epoch_osculation": "2458228.5",
        "eccentricity": ".4793283082831795",
        "semi_major_axis": "1.936001912414302",
        "inclination": "4.31910097594093",
        "ascending_node_longitude": "210.3218607001497",
        "orbital_period": "983.9139086815885",
        "perihelion_distance": "1.008021390903754",
        "perihelion_argument": "16.75887374242284",
        "aphelion_distance": "2.863982433924849",
        "perihelion_time": "2458243.107452976950",
        "mean_anomaly": "354.6553422760854",
        "mean_motion": ".3658856703046183",
        "equinox": "J2000",
        "orbit_class": {
            "orbit_class_type": "APO",
            "orbit_class_description": "Near-Earth asteroid orbits which cross the Earth’s orbit similar to that of 1862 Apollo",
            "orbit_class_range": "a (semi-major axis) > 1.0 AU; q (perihelion) < 1.017 AU"
        }
    },
    "is_sentry_object": false
}